{
    "links": {
        "self": "http://www.neowsapp.com/rest/v1/neo/3726447?api_key=iIulBulltgU6a56xZRHN4H3l9WmuAYTsLGpBGhQ2"
    },
    "id": "3726447",
    "neo_reference_id": "3726447",
    "name": "(2015 PL307)",
    "designation": "2015 PL307",
    "nasa_jpl_url": "http://ssd.jpl.nasa.gov/sbdb.cgi?sstr=3726447",
    "absolute_magnitude_h": 25.7,
    "estimated_diameter": {
        "kilometers": {
            "estimated_diameter_min": 0.0192555078,
            "estimated_diameter_max": 0.0430566244
        },
        "meters": {
            "estimated_diameter_min": 19.2555078188,
            "estimated_diameter_max": 43.0566244241
        },
        "miles": {
            "estimated_diameter_min": 0.0119648141,
            "estimated_diameter_max": 0.0267541378
        },
        "feet": {
            "estimated_diameter_min": 63.1742402722,
            "estimated_diameter_max": 141.2618956756
        }
    },
    "is_potentially_hazardous_asteroid": false,
    "close_approach_data": [
        {
            "close_approach_date": "2015-08-02",
            "close_approach_date_full": "2015-Aug-02 04:36",
            "epoch_date_close_approach": 1438490160000,
            "relative_velocity": {
                "kilometers_per_second": "12.5210961215",
                "kilometers_per_hour": "45075.9460374695",
                "miles_per_hour": "28008.4399142265"
            },
            "miss_distance": {
                "astronomical": "0.0109445388",
                "lunar": "4.2574255932",
                "kilometers": "1637279.692612356",
                "miles": "1017358.4254522728"
            },
            "orbiting_body": "Earth"
        }
    ],
    "orbital_data": {
        "orbit_id": "3",
        "orbit_determination_date": "2017-04-06 08:32:24",
        "first_observation_date": "2015-08-09",
        "last_observation_date": "2015-08-19",
        "data_arc_in_days": 10,
        "observations_used": 8,
        "orbit_uncertainty": "8",
        "minimum_orbit_intersection": ".00250667",
        "jupiter_tisserand_invariant": "4.194",
        "epoch_osculation": "2457246.5",
        "eccentricity": ".4885793944349964",
        "semi_major_axis": "1.612696297268288",
        "inclination": "5.22429015233488",
        "ascending_node_longitude": "128.880230512345",
        "orbital_period": "748.044286347473",
        "perihelion_distance": ".8247661169413871",
        "perihelion_argument": "117.0229195282047",
        "aphelion_distance": "2.400626477595189",
        "perihelion_time": "2457190.599000827970",
        "mean_anomaly": "26.90263139391571",
        "mean_motion": ".4812549291136179",
        "equinox": "J2000",
        "orbit_class": {
            "orbit_class_type": "APO",
            "orbit_class_description": "Near-Earth asteroid orbits which cross the Earth’s orbit similar to that of 1862 Apollo",
            "orbit_class_range": "a (semi-major axis) > 1.0 AU; q (perihelion) < 1.017 AU"
        }
    },
    "is_sentry_object": false
}